[{"OBJECT_NAME":"YUNHAI-2 02E","OBJECT_ID":"2024-052E","EPOCH":"2026-03-09T23:04:08.218272","MEAN_MOTION":14.27923834,"ECCENTRICITY":0.00117453,"INCLINATION":50.0117,"RA_OF_ASC_NODE":23.2487,"ARG_OF_PERICENTER":69.3739,"MEAN_ANOMALY":290.8434,"EPHEMERIS_TYPE":0,"CLASSIFICATION_TYPE":"U","NORAD_CAT_ID":59284,"ELEMENT_SET_NO":999,"REV_AT_EPOCH":9275,"BSTAR":0.0001398659,"MEAN_MOTION_DOT":1.88e-6,"MEAN_MOTION_DDOT":0},{"OBJECT_NAME":"CZ-6A DEB","OBJECT_ID":"2024-140NE","EPOCH":"2026-03-09T13:57:52.550208","MEAN_MOTION":14.22011433,"ECCENTRICITY":0.0039878,"INCLINATION":88.9798,"RA_OF_ASC_NODE":284.6918,"ARG_OF_PERICENTER":136.1163,"MEAN_ANOMALY":224.3208,"EPHEMERIS_TYPE":0,"CLASSIFICATION_TYPE":"U","NORAD_CAT_ID":61088,"ELEMENT_SET_NO":999,"REV_AT_EPOCH":7944,"BSTAR":0.00048127,"MEAN_MOTION_DOT":1.086e-5,"MEAN_MOTION_DDOT":0}]
